SHIYAN-1 (SY-1)         
1 28220U 04012A   26177.90381506  .00015027  00000+0  45891-3 0  9990
2 28220  97.8697 256.6044 0004749 357.4950   2.6267 15.34000202212584
SINAH 1                 
1 28893U 05043D   26177.96333498  .00000326  00000+0  71436-4 0  9995
2 28893  98.2871 312.3433 0013284 243.2268 116.7576 14.64163870101950
SKYSAT-A                
1 39418U 13066C   26177.71476635  .00002613  00000+0  15093-3 0  9995
2 39418  97.3811 226.8082 0019635 282.0342  77.8689 15.13022639689920
SKYSAT-B                
1 40072U 14037D   26177.87541086  .00001267  00000+0  14458-3 0  9990
2 40072  98.3842 137.3928 0004268 239.8141 120.2651 14.88050737647401
SENTINEL-3A             
1 41335U 16011A   26177.96462096  .00000092  00000+0  56213-4 0  9991
2 41335  98.6246 245.2077 0001437  96.8765 263.2579 14.26735132539450
SKYSAT-C1               
1 41601U 16040C   26177.00907460  .00010408  00000+0  29478-3 0  9997
2 41601  96.9565 208.2510 0002628  39.9712 320.1726 15.36441709559225
SENTINEL-5P             
1 42969U 17064A   26177.85845805  .00000036  00000+0  37999-4 0  9993
2 42969  98.7926 119.9210 0001019  90.0917 270.0376 14.19520489450932
SENTINEL-3B             
1 43437U 18039A   26177.79750661  .00000097  00000+0  58259-4 0  9994
2 43437  98.6246 245.1919 0000755 107.5886 252.5377 14.26737293425490
SENTINEL-6A             
1 46984U 20086A   26177.92305137 -.00000076  00000+0 -64861-4 0  9993
2 46984  66.0408 114.8313 0007857 270.0122  89.9993 12.80929973261577
SENTINEL-6B             
1 66514U 25264A   26177.92339930 -.00000078  00000+0 -74184-4 0  9996
2 66514  66.0408 114.9566 0007945 268.9600  91.0505 12.80929969 28416
